{
  "norad_id": 64700,
  "name": "STARLINK-34560",
  "history": [
    {
      "epoch": "2026-03-28T19:58:55.447680Z",
      "apogee_km": 574.1505332380366,
      "perigee_km": 569.9078737807667,
      "latitude_deg": 3.75699842084634e-05,
      "longitude_deg": 140.36201129417012,
      "height_km": 574.5471828881407,
      "semi_major_axis_km": 6950.166203509401,
      "eccentricity": 0.00030522,
      "inclination_deg": 69.9999,
      "raan_deg": 266.3404,
      "arg_perigee_deg": 267.5559,
      "mean_anomaly_deg": 92.5251,
      "mean_motion_rev_day": 14.9833863
    }
  ]
}