{"fetched_at":"2026-03-30T06:02:59Z","count":15439,"tles":[{"name":"STARLINK-34560","line1":"1 64700U 25142E   26087.83258620  .00010388  00000+0  87691-3 0  9991","line2":"2 64700  69.9999 266.3404 0003052 267.5559  92.5251 14.98338630 42302","category":"Starlink"}]}